start=new Date('2022-09-25T00:00:00.000Z').valueOf();
sats=[{"TLE_LINE1":"1 51812U 22017AW  22267.63063525  .00000721  00000-0  63430-4 0  9998","EPOCH":"2022-09-24T15:08:06.885600","OBJECT_NAME":"STARLINK-3610","LAUNCH_DATE":"2022-02-25","MEAN_MOTION":"15.08835308","OBJECT_TYPE":"PAYLOAD","BSTAR":"0.00006343000000","CLASSIFICATION_TYPE":"U","SITE":"AFWTR","PERIAPSIS":"538.629","PERIOD":"95.438","ARG_OF_PERICENTER":"60.7377","MEAN_ELEMENT_THEORY":"SGP4","CENTER_NAME":"EARTH","MEAN_ANOMALY":"299.3779","ECCENTRICITY":"0.00016340","TLE_LINE2":"2 51812  53.2185 234.7159 0001634  60.7377 299.3779 15.08835308 33551","FILE":"3582616","SEMIMAJOR_AXIS":"6917.895","TIME_SYSTEM":"UTC","REV_AT_EPOCH":"3355","MEAN_MOTION_DOT":"0.00000721","MEAN_MOTION_DDOT":"0.0000000000000","APOAPSIS":"540.890","OBJECT_ID":"2022-017AW","ELEMENT_SET_NO":"999","COUNTRY_CODE":"US","INCLINATION":"53.2185","REF_FRAME":"TEME","DECAY_DATE":null,"RA_OF_ASC_NODE":"234.7159","GP_ID":"213405317","NORAD_CAT_ID":"51812","RCS_SIZE":"LARGE","EPHEMERIS_TYPE":"0"},{"SITE":"AFWTR","PERIAPSIS":"538.639","ARG_OF_PERICENTER":"46.3545","PERIOD":"95.438","CENTER_NAME":"EARTH","MEAN_ANOMALY":"313.7582","MEAN_ELEMENT_THEORY":"SGP4","EPOCH":"2022-09-24T09:51:31.857696","TLE_LINE1":"1 51813U 22017AX  22267.41078539  .00000330  00000-0  38812-4 0  9998","OBJECT_NAME":"STARLINK-3552","LAUNCH_DATE":"2022-02-25","MEAN_MOTION":"15.08833179","OBJECT_TYPE":"PAYLOAD","BSTAR":"0.00003881200000","CLASSIFICATION_TYPE":"U","REV_AT_EPOCH":"3352","MEAN_MOTION_DOT":"0.00000330","ECCENTRICITY":"0.00016300","TLE_LINE2":"2 51813  53.2166 235.7117 0001630  46.3545 313.7582 15.08833179 33523","FILE":"3582188","SEMIMAJOR_AXIS":"6917.901","TIME_SYSTEM":"UTC","REF_FRAME":"TEME","DECAY_DATE":null,"APOAPSIS":"540.894","MEAN_MOTION_DDOT":"0.0000000000000","ELEMENT_SET_NO":"999","OBJECT_ID":"2022-017AX","COUNTRY_CODE":"US","INCLINATION":"53.2166","GP_ID":"213370669","NORAD_CAT_ID":"51813","RCS_SIZE":"LARGE","EPHEMERIS_TYPE":"0","RA_OF_ASC_NODE":"235.7117"},{"RCS_SIZE":"LARGE","EPHEMERIS_TYPE":"0","NORAD_CAT_ID":"51814","GP_ID":"213371419","RA_OF_ASC_NODE":"236.5376","DECAY_DATE":null,"REF_FRAME":"TEME","INCLINATION":"53.2183","COUNTRY_CODE":"US","ELEMENT_SET_NO":"999","OBJECT_ID":"2022-017AY","APOAPSIS":"540.642","MEAN_MOTION_DDOT":"0.0000000000000","REV_AT_EPOCH":"3349","MEAN_MOTION_DOT":"-0.00003535","SEMIMAJOR_AXIS":"6917.864","TIME_SYSTEM":"UTC","FILE":"3582188","TLE_LINE2":"2 51814  53.2183 236.5376 0001320  49.6621 310.4486 15.08845418 33498","ECCENTRICITY":"0.00013200","PERIOD":"95.437","MEAN_ELEMENT_THEORY":"SGP4","ARG_OF_PERICENTER":"49.6621","CENTER_NAME":"EARTH","MEAN_ANOMALY":"310.4486","PERIAPSIS":"538.816","SITE":"AFWTR","BSTAR":"-0.00020412000000","CLASSIFICATION_TYPE":"U","MEAN_MOTION":"15.08845418","OBJECT_TYPE":"PAYLOAD","LAUNCH_DATE":"2022-02-25","EPOCH":"2022-09-24T05:25:11.913312","TLE_LINE1":"1 51814U 22017AY  22267.22583233 -.00003535  00000-0 -20412-3 0  9998","OBJECT_NAME":"STARLINK-3599"},{"ECCENTRICITY":"0.00014810","FILE":"3582188","TLE_LINE2":"2 51815  53.2192 236.5296 0001481  81.9017 278.2143 15.08829153 33495","SEMIMAJOR_AXIS":"6917.914","TIME_SYSTEM":"UTC","REV_AT_EPOCH":"3349","MEAN_MOTION_DOT":"0.00000814","EPOCH":"2022-09-24T05:30:30.159936","TLE_LINE1":"1 51815U 22017AZ  22267.22951574  .00000814  00000-0  69250-4 0  9995","OBJECT_NAME":"STARLINK-3604","LAUNCH_DATE":"2022-02-25","MEAN_MOTION":"15.08829153","OBJECT_TYPE":"PAYLOAD","BSTAR":"0.00006925000000","CLASSIFICATION_TYPE":"U","SITE":"AFWTR","PERIAPSIS":"538.754","MEAN_ELEMENT_THEORY":"SGP4","PERIOD":"95.438","ARG_OF_PERICENTER":"81.9017","MEAN_ANOMALY":"278.2143","CENTER_NAME":"EARTH","RA_OF_ASC_NODE":"236.5296","GP_ID":"213371671","NORAD_CAT_ID":"51815","RCS_SIZE":"LARGE","EPHEMERIS_TYPE":"0","MEAN_MOTION_DDOT":"0.0000000000000","APOAPSIS":"540.803","OBJECT_ID":"2022-017AZ","ELEMENT_SET_NO":"999","COUNTRY_CODE":"US","INCLINATION":"53.2192","DECAY_DATE":null,"REF_FRAME":"TEME"},{"APOAPSIS":"540.618","MEAN_MOTION_DDOT":"0.0000000000000","ELEMENT_SET_NO":"999","OBJECT_ID":"2022-017BA","COUNTRY_CODE":"US","INCLINATION":"53.2187","DECAY_DATE":null,"REF_FRAME":"TEME","RA_OF_ASC_NODE":"236.8559","GP_ID":"213371915","NORAD_CAT_ID":"51816","EPHEMERIS_TYPE":"0","RCS_SIZE":"LARGE","OBJECT_NAME":"STARLINK-3603","TLE_LINE1":"1 51816U 22017BA  22267.15591134 -.00000338  00000-0 -31576-5 0  9994","EPOCH":"2022-09-24T03:44:30.739776","LAUNCH_DATE":"2022-02-25","OBJECT_TYPE":"PAYLOAD","MEAN_MOTION":"15.08838535","CLASSIFICATION_TYPE":"U","BSTAR":"-0.00000315760000","SITE":"AFWTR","PERIAPSIS":"538.882","PERIOD":"95.438","MEAN_ELEMENT_THEORY":"SGP4","CENTER_NAME":"EARTH","ARG_OF_PERICENTER":"82.1090","MEAN_ANOMALY":"278.0045","ECCENTRICITY":"0.00012550","FILE":"3582188","TLE_LINE2":"2 51816  53.2187 236.8559 0001255  82.1090 278.0045 15.08838535 33536","TIME_SYSTEM":"UTC","SEMIMAJOR_AXIS":"6917.885","MEAN_MOTION_DOT":"-0.00000338","REV_AT_EPOCH":"3353"},{"ECCENTRICITY":"0.00084960","FILE":"3582251","TLE_LINE2":"2 51817  53.2060 170.7990 0008496 284.0785  75.9292 15.76714349 34574","TIME_SYSTEM":"UTC","SEMIMAJOR_AXIS":"6717.894","MEAN_MOTION_DOT":"-0.00000995","REV_AT_EPOCH":"3457","OBJECT_NAME":"STARLINK-3596","TLE_LINE1":"1 51817U 22017BB  22267.75787823 -.00000995  00000-0 -19940-5 0  9993","EPOCH":"2022-09-24T18:11:20.679072","LAUNCH_DATE":"2022-02-25","OBJECT_TYPE":"PAYLOAD","MEAN_MOTION":"15.76714349","CLASSIFICATION_TYPE":"U","BSTAR":"-0.00000199400000","SITE":"AFWTR","PERIAPSIS":"334.052","CENTER_NAME":"EARTH","PERIOD":"91.329","ARG_OF_PERICENTER":"284.0785","MEAN_ANOMALY":"75.9292","MEAN_ELEMENT_THEORY":"SGP4","RA_OF_ASC_NODE":"170.7990","GP_ID":"213374144","NORAD_CAT_ID":"51817","EPHEMERIS_TYPE":"0","RCS_SIZE":"LARGE","MEAN_MOTION_DDOT":"0.0000000000000","APOAPSIS":"345.467","OBJECT_ID":"2022-017BB","ELEMENT_SET_NO":"999","COUNTRY_CODE":"US","INCLINATION":"53.2060","REF_FRAME":"TEME","DECAY_DATE":null},{"GP_ID":"213371675","NORAD_CAT_ID":"51852","EPHEMERIS_TYPE":"0","RCS_SIZE":"LARGE","RA_OF_ASC_NODE":"285.8329","DECAY_DATE":null,"REF_FRAME":"TEME","APOAPSIS":"540.959","MEAN_MOTION_DDOT":"0.0000000000000","OBJECT_ID":"2022-022A","ELEMENT_SET_NO":"999","COUNTRY_CODE":"US","INCLINATION":"53.2166","MEAN_MOTION_DOT":"0.00002345","REV_AT_EPOCH":"3119","ECCENTRICITY":"0.00017610","TLE_LINE2":"2 51852  53.2166 285.8329 0001761  51.1448 308.9701 15.08841594 31198","FILE":"3582188","TIME_SYSTEM":"UTC","SEMIMAJOR_AXIS":"6917.876","SITE":"AFETR","PERIAPSIS":"538.522","PERIOD":"95.437","CENTER_NAME":"EARTH","MEAN_ELEMENT_THEORY":"SGP4","ARG_OF_PERICENTER":"51.1448","MEAN_ANOMALY":"308.9701","OBJECT_NAME":"STARLINK-3542","EPOCH":"2022-09-24T09:11:44.301696","TLE_LINE1":"1 51852U 22022A   22267.38315164  .00002345  00000-0  16538-3 0  9999","LAUNCH_DATE":"2022-03-03","OBJECT_TYPE":"PAYLOAD","MEAN_MOTION":"15.08841594","CLASSIFICATION_TYPE":"U","BSTAR":"0.00016538000000"},{"REF_FRAME":"TEME","DECAY_DATE":null,"INCLINATION":"53.2173","COUNTRY_CODE":"US","OBJECT_ID":"2022-022B","ELEMENT_SET_NO":"999","APOAPSIS":"540.766","MEAN_MOTION_DDOT":"0.0000000000000","RCS_SIZE":"MEDIUM","EPHEMERIS_TYPE":"0","NORAD_CAT_ID":"51853","GP_ID":"213380731","RA_OF_ASC_NODE":"285.2257","MEAN_ELEMENT_THEORY":"SGP4","PERIOD":"95.438","ARG_OF_PERICENTER":"64.0280","CENTER_NAME":"EARTH","MEAN_ANOMALY":"296.0860","PERIAPSIS":"538.778","SITE":"AFETR","BSTAR":"0.00005294600000","CLASSIFICATION_TYPE":"U","MEAN_MOTION":"15.08831352","OBJECT_TYPE":"PAYLOAD","LAUNCH_DATE":"2022-03-03","TLE_LINE1":"1 51853U 22022B   22267.51931987  .00000555  00000-0  52946-4 0  9997","EPOCH":"2022-09-24T12:27:49.236768","OBJECT_NAME":"STARLINK-3539","REV_AT_EPOCH":"3241","MEAN_MOTION_DOT":"0.00000555","SEMIMAJOR_AXIS":"6917.907","TIME_SYSTEM":"UTC","FILE":"3582503","TLE_LINE2":"2 51853  53.2173 285.2257 0001437  64.0280 296.0860 15.08831352 32418","ECCENTRICITY":"0.00014370"},{"INCLINATION":"53.2157","COUNTRY_CODE":"US","ELEMENT_SET_NO":"999","OBJECT_ID":"2022-022C","MEAN_MOTION_DDOT":"0.0000000000000","APOAPSIS":"541.134","REF_FRAME":"TEME","DECAY_DATE":null,"RA_OF_ASC_NODE":"285.2521","RCS_SIZE":"LARGE","EPHEMERIS_TYPE":"0","NORAD_CAT_ID":"51854","GP_ID":"213371173","BSTAR":"0.00062251000000","CLASSIFICATION_TYPE":"U","MEAN_MOTION":"15.08829315","OBJECT_TYPE":"PAYLOAD","LAUNCH_DATE":"2022-03-03","EPOCH":"2022-09-24T12:17:12.808320","TLE_LINE1":"1 51854U 22022C   22267.51195380  .00009630  00000-0  62251-3 0  9999","OBJECT_NAME":"STARLINK-3541","MEAN_ELEMENT_THEORY":"SGP4","PERIOD":"95.438","CENTER_NAME":"EARTH","ARG_OF_PERICENTER":"50.1457","MEAN_ANOMALY":"309.9707","PERIAPSIS":"538.422","SITE":"AFETR","SEMIMAJOR_AXIS":"6917.913","TIME_SYSTEM":"UTC","TLE_LINE2":"2 51854  53.2157 285.2521 0001960  50.1457 309.9707 15.08829315 32474","FILE":"3582188","ECCENTRICITY":"0.00019600","REV_AT_EPOCH":"3247","MEAN_MOTION_DOT":"0.00009630"},{"REF_FRAME":"TEME","DECAY_DATE":null,"COUNTRY_CODE":"US","INCLINATION":"53.2182","APOAPSIS":"541.021","MEAN_MOTION_DDOT":"0.0000000000000","OBJECT_ID":"2022-022D","ELEMENT_SET_NO":"999","EPHEMERIS_TYPE":"0","RCS_SIZE":"LARGE","GP_ID":"213406824","NORAD_CAT_ID":"51855","RA_OF_ASC_NODE":"284.9898","PERIAPSIS":"538.432","CENTER_NAME":"EARTH","PERIOD":"95.437","ARG_OF_PERICENTER":"51.3118","MEAN_ELEMENT_THEORY":"SGP4","MEAN_ANOMALY":"308.8041","SITE":"AFETR","OBJECT_TYPE":"PAYLOAD","MEAN_MOTION":"15.08846141","CLASSIFICATION_TYPE":"U","BSTAR":"0.00010186000000","OBJECT_NAME":"STARLINK-3545","EPOCH":"2022-09-24T13:41:59.227296","TLE_LINE1":"1 51855U 22022D   22267.57082439  .00001334  00000-0  10186-3 0  9999","LAUNCH_DATE":"2022-03-03","MEAN_MOTION_DOT":"0.00001334","REV_AT_EPOCH":"3243","TIME_SYSTEM":"UTC","SEMIMAJOR_AXIS":"6917.862","ECCENTRICITY":"0.00018710","FILE":"3582616","TLE_LINE2":"2 51855  53.2182 284.9898 0001871  51.3118 308.8041 15.08846141 32435"}];
